{
  "type": "FeatureCollection",
  "features": [
    {
      "type": "Feature",
      "properties": {
        "norad_id": 66836,
        "name": "STARLINK-35838",
        "group": "last-30-days",
        "lat": 68.95341632817237,
        "lon": -71.18593250411249,
        "alt_km": 401.5058395723454,
        "timestamp": "2025-12-19T10:49:59.923446+00:00",
        "meta_object_name": "STARLINK-35838",
        "meta_object_id": "2025-280R",
        "meta_epoch": "2025-12-18T22:00:00.999936",
        "meta_mean_motion": 15.55801494,
        "meta_eccentricity": 0.00037397,
        "meta_inclination": 69.9997,
        "meta_ra_of_asc_node": 181.4685,
        "meta_arg_of_pericenter": 267.3445,
        "meta_mean_anomaly": 77.6387,
        "meta_ephemeris_type": 0,
        "meta_classification_type": "U",
        "meta_norad_cat_id": 66836,
        "meta_element_set_no": 999,
        "meta_rev_at_epoch": 389,
        "meta_bstar": -0.033040385,
        "meta_mean_motion_dot": -0.02046713,
        "meta_mean_motion_ddot": 0,
        "tle_line1": "1 66836U 25280R   25352.91667824 -.02046713  00000+0 -33040-1 0  9991",
        "tle_line2": "2 66836  69.9997 181.4685 0003739 267.3445  77.6387 15.55801494  3896"
      },
      "geometry": {
        "type": "Point",
        "coordinates": [
          -71.18593250411249,
          68.95341632817237
        ]
      }
    },
    {
      "type": "Feature",
      "properties": {
        "norad_id": 66837,
        "name": "STARLINK-35729",
        "group": "last-30-days",
        "lat": 68.29775981128884,
        "lon": -66.23358909265352,
        "alt_km": 401.59344473800866,
        "timestamp": "2025-12-19T10:49:59.923456+00:00",
        "meta_object_name": "STARLINK-35729",
        "meta_object_id": "2025-280S",
        "meta_epoch": "2025-12-18T22:00:00.999936",
        "meta_mean_motion": 15.55799972,
        "meta_eccentricity": 0.0003796,
        "meta_inclination": 69.9998,
        "meta_ra_of_asc_node": 181.4661,
        "meta_arg_of_pericenter": 268.1427,
        "meta_mean_anomaly": 78.7597,
        "meta_ephemeris_type": 0,
        "meta_classification_type": "U",
        "meta_norad_cat_id": 66837,
        "meta_element_set_no": 999,
        "meta_rev_at_epoch": 389,
        "meta_bstar": -0.033019174,
        "meta_mean_motion_dot": -0.02007714,
        "meta_mean_motion_ddot": 0,
        "tle_line1": "1 66837U 25280S   25352.91667824 -.02007714  00000+0 -33019-1 0  9996",
        "tle_line2": "2 66837  69.9998 181.4661 0003796 268.1427  78.7597 15.55799972  3896"
      },
      "geometry": {
        "type": "Point",
        "coordinates": [
          -66.23358909265352,
          68.29775981128884
        ]
      }
    },
    {
      "type": "Feature",
      "properties": {
        "norad_id": 66838,
        "name": "STARLINK-35886",
        "group": "last-30-days",
        "lat": 66.58386876058891,
        "lon": -57.25931978469531,
        "alt_km": 401.66262938074306,
        "timestamp": "2025-12-19T10:49:59.923466+00:00",
        "meta_object_name": "STARLINK-35886",
        "meta_object_id": "2025-280T",
        "meta_epoch": "2025-12-18T22:00:00.999936",
        "meta_mean_motion": 15.55797671,
        "meta_eccentricity": 0.00037365,
        "meta_inclination": 69.9996,
        "meta_ra_of_asc_node": 181.4612,
        "meta_arg_of_pericenter": 269.4407,
        "meta_mean_anomaly": 81.2935,
        "meta_ephemeris_type": 0,
        "meta_classification_type": "U",
        "meta_norad_cat_id": 66838,
        "meta_element_set_no": 999,
        "meta_rev_at_epoch": 389,
        "meta_bstar": -0.0328769,
        "meta_mean_motion_dot": -0.01999934,
        "meta_mean_motion_ddot": 0,
        "tle_line1": "1 66838U 25280T   25352.91667824 -.01999934  00000+0 -32877-1 0  9991",
        "tle_line2": "2 66838  69.9996 181.4612 0003736 269.4407  81.2935 15.55797671  3896"
      },
      "geometry": {
        "type": "Point",
        "coordinates": [
          -57.25931978469531,
          66.58386876058891
        ]
      }
    },
    {
      "type": "Feature",
      "properties": {
        "norad_id": 66839,
        "name": "STARLINK-35717",
        "group": "last-30-days",
        "lat": 67.50523071416528,
        "lon": -61.59477647101375,
        "alt_km": 401.6023182750914,
        "timestamp": "2025-12-19T10:49:59.923476+00:00",
        "meta_object_name": "STARLINK-35717",
        "meta_object_id": "2025-280U",
        "meta_epoch": "2025-12-18T22:00:00.999936",
        "meta_mean_motion": 15.55802214,
        "meta_eccentricity": 0.00037594,
        "meta_inclination": 69.9999,
        "meta_ra_of_asc_node": 181.4636,
        "meta_arg_of_pericenter": 266.826,
        "meta_mean_anomaly": 81.9893,
        "meta_ephemeris_type": 0,
        "meta_classification_type": "U",
        "meta_norad_cat_id": 66839,
        "meta_element_set_no": 999,
        "meta_rev_at_epoch": 389,
        "meta_bstar": -0.03304054,
        "meta_mean_motion_dot": -0.02046787,
        "meta_mean_motion_ddot": 0,
        "tle_line1": "1 66839U 25280U   25352.91667824 -.02046787  00000+0 -33041-1 0  9996",
        "tle_line2": "2 66839  69.9999 181.4636 0003759 266.8260  81.9893 15.55802214  3899"
      },
      "geometry": {
        "type": "Point",
        "coordinates": [
          -61.59477647101375,
          67.50523071416528
        ]
      }
    },
    {
      "type": "Feature",
      "properties": {
        "norad_id": 66840,
        "name": "STARLINK-35837",
        "group": "last-30-days",
        "lat": 65.56452922620394,
        "lon": -53.29556763930302,
        "alt_km": 401.81815721579824,
        "timestamp": "2025-12-19T10:49:59.923486+00:00",
        "meta_object_name": "STARLINK-35837",
        "meta_object_id": "2025-280V",
        "meta_epoch": "2025-12-18T22:00:00.999936",
        "meta_mean_motion": 15.5581198,
        "meta_eccentricity": 0.00037098,
        "meta_inclination": 69.9996,
        "meta_ra_of_asc_node": 181.4601,
        "meta_arg_of_pericenter": 271.4172,
        "meta_mean_anomaly": 81.2305,
        "meta_ephemeris_type": 0,
        "meta_classification_type": "U",
        "meta_norad_cat_id": 66840,
        "meta_element_set_no": 999,
        "meta_rev_at_epoch": 389,
        "meta_bstar": -0.033475629,
        "meta_mean_motion_dot": -0.02071491,
        "meta_mean_motion_ddot": 0,
        "tle_line1": "1 66840U 25280V   25352.91667824 -.02071491  00000+0 -33476-1 0  9990",
        "tle_line2": "2 66840  69.9996 181.4601 0003709 271.4172  81.2305 15.55811980  3890"
      },
      "geometry": {
        "type": "Point",
        "coordinates": [
          -53.29556763930302,
          65.56452922620394
        ]
      }
    },
    {
      "type": "Feature",
      "properties": {
        "norad_id": 66841,
        "name": "STARLINK-35715",
        "group": "last-30-days",
        "lat": 64.43502799944353,
        "lon": -49.6016483375285,
        "alt_km": 401.7689761296142,
        "timestamp": "2025-12-19T10:49:59.923498+00:00",
        "meta_object_name": "STARLINK-35715",
        "meta_object_id": "2025-280W",
        "meta_epoch": "2025-12-18T22:00:00.999936",
        "meta_mean_motion": 15.55799211,
        "meta_eccentricity": 0.00037053,
        "meta_inclination": 69.9994,
        "meta_ra_of_asc_node": 181.4572,
        "meta_arg_of_pericenter": 266.3168,
        "meta_mean_anomaly": 88.2489,
        "meta_ephemeris_type": 0,
        "meta_classification_type": "U",
        "meta_norad_cat_id": 66841,
        "meta_element_set_no": 999,
        "meta_rev_at_epoch": 389,
        "meta_bstar": -0.032965903,
        "meta_mean_motion_dot": -0.02004747,
        "meta_mean_motion_ddot": 0,
        "tle_line1": "1 66841U 25280W   25352.91667824 -.02004747  00000+0 -32966-1 0  9994",
        "tle_line2": "2 66841  69.9994 181.4572 0003705 266.3168  88.2489 15.55799211  3892"
      },
      "geometry": {
        "type": "Point",
        "coordinates": [
          -49.6016483375285,
          64.43502799944353
        ]
      }
    },
    {
      "type": "Feature",
      "properties": {
        "norad_id": 66842,
        "name": "STARLINK-35769",
        "group": "last-30-days",
        "lat": 63.225197740495965,
        "lon": -46.221347730489576,
        "alt_km": 401.9621168486983,
        "timestamp": "2025-12-19T10:49:59.923513+00:00",
        "meta_object_name": "STARLINK-35769",
        "meta_object_id": "2025-280X",
        "meta_epoch": "2025-12-18T22:00:00.999936",
        "meta_mean_motion": 15.55800214,
        "meta_eccentricity": 0.00037706,
        "meta_inclination": 69.9997,
        "meta_ra_of_asc_node": 181.4551,
        "meta_arg_of_pericenter": 269.1994,
        "meta_mean_anomaly": 87.2841,
        "meta_ephemeris_type": 0,
        "meta_classification_type": "U",
        "meta_norad_cat_id": 66842,
        "meta_element_set_no": 999,
        "meta_rev_at_epoch": 389,
        "meta_bstar": -0.033015945,
        "meta_mean_motion_dot": -0.02007535,
        "meta_mean_motion_ddot": 0,
        "tle_line1": "1 66842U 25280X   25352.91667824 -.02007535  00000+0 -33016-1 0  9990",
        "tle_line2": "2 66842  69.9997 181.4551 0003770 269.1994  87.2841 15.55800214  3890"
      },
      "geometry": {
        "type": "Point",
        "coordinates": [
          -46.221347730489576,
          63.225197740495965
        ]
      }
    }
  ]
}